[{"OBJECT_NAME":"STARLINK-1856","OBJECT_ID":"2020-088X","EPOCH":"2026-03-10T00:00:02.999808","MEAN_MOTION":15.49188695,"ECCENTRICITY":0.0006619,"INCLINATION":53.0514,"RA_OF_ASC_NODE":271.7425,"ARG_OF_PERICENTER":153.2218,"MEAN_ANOMALY":212.208,"EPHEMERIS_TYPE":0,"CLASSIFICATION_TYPE":"U","NORAD_CAT_ID":47143,"ELEMENT_SET_NO":999,"REV_AT_EPOCH":590,"BSTAR":0.0029309484,"MEAN_MOTION_DOT":0.00165467,"MEAN_MOTION_DDOT":0},{"OBJECT_NAME":"ARIANE 40+3 R\/B","OBJECT_ID":"1995-033D","EPOCH":"2026-03-09T22:16:15.098592","MEAN_MOTION":15.47222333,"ECCENTRICITY":0.00073585,"INCLINATION":98.2878,"RA_OF_ASC_NODE":273.1988,"ARG_OF_PERICENTER":36.2046,"MEAN_ANOMALY":323.9698,"EPHEMERIS_TYPE":0,"CLASSIFICATION_TYPE":"U","NORAD_CAT_ID":23608,"ELEMENT_SET_NO":999,"REV_AT_EPOCH":66682,"BSTAR":0.0008304958,"MEAN_MOTION_DOT":0.0004236,"MEAN_MOTION_DDOT":0}]
